OBJECT_NAME,OBJECT_ID,EPOCH,MEAN_MOTION,ECCENTRICITY,INCLINATION,RA_OF_ASC_NODE,ARG_OF_PERICENTER,MEAN_ANOMALY,EPHEMERIS_TYPE,CLASSIFICATION_TYPE,NORAD_CAT_ID,ELEMENT_SET_NO,REV_AT_EPOCH,BSTAR,MEAN_MOTION_DOT,MEAN_MOTION_DDOT
STARLINK-35652,2025-257P,2026-06-09T16:27:04.178592,15.30198679,.00016597,53.1608,150.0524,89.9727,270.1464,0,U,66393,999,3381,.13462124E-2,.39724E-3,0
STARLINK-35672,2025-257Q,2026-06-09T16:02:07.947456,15.34406043,.0001758,53.1600,148.5251,70.1694,289.9498,0,U,66394,999,3383,.50154911E-3,.1661E-3,0
STARLINK-35681,2025-257R,2026-06-09T04:26:23.021952,15.30216363,.00020112,53.1584,151.9048,133.6575,226.4593,0,U,66395,999,3366,.87826213E-3,.25756E-3,0
STARLINK-35669,2025-257S,2026-06-09T06:06:01.798272,15.34392543,.0001203,53.1591,150.2170,84.5367,275.5773,0,U,66396,999,3377,.79926E-3,.26718E-3,0
STARLINK-35510,2025-257T,2026-06-09T16:36:01.430208,15.30207877,.00014524,53.1596,149.3808,84.0656,276.0510,0,U,66397,999,3382,.44221852E-3,.12764E-3,0
STARLINK-35642,2025-257U,2026-06-09T16:35:27.820608,15.34403201,.00013606,53.1592,148.6713,86.8301,273.2857,0,U,66398,999,3383,.87965542E-3,.29464E-3,0
STARLINK-35657,2025-257V,2026-06-09T16:26:22.390368,15.34399906,.00012898,53.1587,148.6341,82.1694,277.9455,0,U,66399,999,3382,.80224565E-3,.26826E-3,0
STARLINK-35667,2025-257W,2026-06-09T16:08:10.111200,15.34375760,.00010155,53.1580,148.5534,96.9861,263.1257,0,U,66400,999,3383,.75970569E-4,.219E-4,0
STARLINK-35668,2025-257X,2026-06-09T16:05:10.612608,15.34392903,.0001355,53.1581,148.5399,83.9028,276.2129,0,U,66401,999,3383,.59753568E-3,.19861E-3,0
STARLINK-35602,2025-257Z,2026-06-09T06:33:16.024896,15.34375179,.0001158,53.1572,150.3260,80.6534,279.4599,0,U,66403,999,3377,.53142E-3,.17607E-3,0
STARLINK-35691,2025-257AA,2026-06-09T15:50:01.442688,15.34412569,.00014796,53.1580,148.4703,71.0228,289.0935,0,U,66404,999,3383,.62689293E-3,.20872E-3,0
STARLINK-35683,2025-257AB,2026-06-09T16:23:20.935680,15.34393408,.00016203,53.1592,148.6144,90.3171,269.8017,0,U,66405,999,3376,.11763909E-2,.39572E-3,0
STARLINK-34840,2025-257AC,2026-06-09T06:18:08.765280,15.34401215,.0001141,53.1580,150.2530,97.1125,263.0008,0,U,66406,999,3371,.65774E-3,.21912E-3,0
STARLINK-35686,2025-257AD,2026-06-09T06:15:06.539904,15.34378119,.0000996,53.1579,150.2422,81.1255,278.9860,0,U,66407,999,3377,.6162E-3,.20486E-3,0
STARLINK-35679,2025-257AE,2026-06-09T06:21:11.220480,15.34413060,.00012857,53.1574,150.2628,74.2506,285.8639,0,U,66408,999,3377,.57332453E-3,.19052E-3,0
CHUTIAN-2 A,2025-256A,2026-06-08T04:46:28.799616,14.50195114,.0013634,98.2499,225.5644,5.4685,354.6656,0,U,66409,999,3059,.1422359E-3,.51E-5,0
CHUTIAN-2 B,2025-256B,2026-06-08T17:37:11.240832,14.50188200,.00139558,98.2537,226.1878,6.2907,353.8460,0,U,66410,999,3067,.13932046E-3,.498E-5,0
HULIANWANG DIGUI-96,2025-258A,2026-06-09T18:18:22.044960,13.29324877,.00009578,50.0057,322.2653,113.1467,246.9506,0,U,66412,999,2874,.5730658E-4,-.97E-6,0
HULIANWANG DIGUI-97,2025-258B,2026-06-09T17:18:09.014688,13.29324395,.00010894,50.0023,322.6488,114.6425,245.4561,0,U,66413,999,2873,.88190657E-4,-.83E-6,0
HULIANWANG DIGUI-98,2025-258C,2026-06-09T17:06:11.096352,13.29320791,.00011889,50.0060,322.6741,114.7987,245.3009,0,U,66414,999,2873,.72513032E-4,-.9E-6,0
HULIANWANG DIGUI-99,2025-258D,2026-06-09T18:06:21.118176,13.29324024,.00010243,50.0058,322.2237,118.1118,241.9858,0,U,66415,999,2873,.63471941E-4,-.95E-6,0
HULIANWANG DIGUI-100,2025-258E,2026-06-09T16:54:08.508960,13.29320754,.00010001,50.0061,322.6345,121.9520,238.1450,0,U,66416,999,2874,.7006749E-4,-.92E-6,0
HULIANWANG DIGUI-101,2025-258F,2026-06-09T16:42:00.873216,13.29324711,.00008959,50.0012,322.4963,113.4567,246.6399,0,U,66417,999,2874,.61667739E-4,-.95E-6,0
HULIANWANG DIGUI-102,2025-258G,2026-06-09T17:54:13.635360,13.29320721,.00009784,50.0025,322.1172,111.2745,248.8232,0,U,66418,999,2874,.65556229E-4,-.94E-6,0
HULIANWANG DIGUI-103,2025-258H,2026-06-09T17:42:08.137152,13.29323795,.00009704,50.0019,322.0606,122.1655,237.9311,0,U,66419,999,2874,.80996609E-4,-.86E-6,0
HULIANWANG DIGUI-104,2025-258J,2026-06-09T17:30:10.021824,13.29323964,.00010193,50.0036,322.0522,112.3315,247.7665,0,U,66420,999,2873,.76170458E-4,-.89E-6,0
STARLINK-35617,2025-259A,2026-06-09T14:07:04.469952,15.27594332,.00031642,43.0034,115.5657,264.2151,95.8340,0,U,66422,999,3354,.52496508E-3,.14219E-3,0
STARLINK-35618,2025-259B,2026-06-09T13:59:41.281152,15.27630363,.00029216,42.9942,115.5266,265.0082,95.0436,0,U,66423,999,3354,.87097917E-3,.23821E-3,0
STARLINK-35588,2025-259C,2026-06-09T22:00:01.999584,15.27580358,.00012,43.0008,113.6066,256.9060,153.8620,0,U,66424,999,576,.53652478E-3,.14531E-3,0
STARLINK-35555,2025-259D,2026-06-09T13:50:25.760256,15.27596629,.00016938,42.9932,115.4726,266.7137,93.3520,0,U,66425,999,3354,.63685859E-3,.17313E-3,0
