STARLINK-35652          
1 66393U 25257P   26160.68546503  .00039724  00000+0  13462-2 0  9992
2 66393  53.1608 150.0524 0001659  89.9727 270.1464 15.30198679 33810
STARLINK-35672          
1 66394U 25257Q   26160.66814754  .00016610  00000+0  50155-3 0  9997
2 66394  53.1600 148.5251 0001758  70.1694 289.9498 15.34406043 33835
STARLINK-35681          
1 66395U 25257R   26160.18498868  .00025756  00000+0  87826-3 0  9995
2 66395  53.1584 151.9048 0002011 133.6575 226.4593 15.30216363 33668
STARLINK-35669          
1 66396U 25257S   26160.25418748  .00026718  00000+0  79926-3 0  9994
2 66396  53.1591 150.2170 0001203  84.5367 275.5773 15.34392543 33776
STARLINK-35510          
1 66397U 25257T   26160.69168322  .00012764  00000+0  44222-3 0  9990
2 66397  53.1596 149.3808 0001452  84.0656 276.0510 15.30207877 33823
STARLINK-35642          
1 66398U 25257U   26160.69129422  .00029464  00000+0  87966-3 0  9996
2 66398  53.1592 148.6713 0001360  86.8301 273.2857 15.34403201 33839
STARLINK-35657          
1 66399U 25257V   26160.68498137  .00026826  00000+0  80225-3 0  9998
2 66399  53.1587 148.6341 0001289  82.1694 277.9455 15.34399906 33825
STARLINK-35667          
1 66400U 25257W   26160.67233925  .00002190  00000+0  75971-4 0  9993
2 66400  53.1580 148.5534 0001015  96.9861 263.1257 15.34375760 33830
STARLINK-35668          
1 66401U 25257X   26160.67026172  .00019861  00000+0  59754-3 0  9991
2 66401  53.1581 148.5399 0001355  83.9028 276.2129 15.34392903 33830
STARLINK-35602          
1 66403U 25257Z   26160.27310214  .00017607  00000+0  53142-3 0  9993
2 66403  53.1572 150.3260 0001158  80.6534 279.4599 15.34375179 33772
STARLINK-35691          
1 66404U 25257AA  26160.65973892  .00020872  00000+0  62689-3 0  9997
2 66404  53.1580 148.4703 0001479  71.0228 289.0935 15.34412569 33835
STARLINK-35683          
1 66405U 25257AB  26160.68288120  .00039572  00000+0  11764-2 0  9998
2 66405  53.1592 148.6144 0001620  90.3171 269.8017 15.34393408 33768
STARLINK-34840          
1 66406U 25257AC  26160.26260145  .00021912  00000+0  65774-3 0  9990
2 66406  53.1580 150.2530 0001141  97.1125 263.0008 15.34401215 33713
STARLINK-35686          
1 66407U 25257AD  26160.26049236  .00020486  00000+0  61620-3 0  9998
2 66407  53.1579 150.2422 0000996  81.1255 278.9860 15.34378119 33779
STARLINK-35679          
1 66408U 25257AE  26160.26471320  .00019052  00000+0  57332-3 0  9994
2 66408  53.1574 150.2628 0001285  74.2506 285.8639 15.34413060 33773
CHUTIAN-2 A             
1 66409U 25256A   26159.19894444  .00000510  00000+0  14224-3 0  9992
2 66409  98.2499 225.5644 0013634   5.4685 354.6656 14.50195114 30594
CHUTIAN-2 B             
1 66410U 25256B   26159.73415788  .00000498  00000+0  13932-3 0  9994
2 66410  98.2537 226.1878 0013955   6.2907 353.8460 14.50188200 30678
HULIANWANG DIGUI-96     
1 66412U 25258A   26160.76275515 -.00000097  00000+0  57307-4 0  9996
2 66412  50.0057 322.2653 0000957 113.1467 246.9506 13.29324877 28744
HULIANWANG DIGUI-97     
1 66413U 25258B   26160.72093767 -.00000083  00000+0  88191-4 0  9990
2 66413  50.0023 322.6488 0001089 114.6425 245.4561 13.29324395 28734
HULIANWANG DIGUI-98     
1 66414U 25258C   26160.71262843 -.00000090  00000+0  72513-4 0  9992
2 66414  50.0060 322.6741 0001188 114.7987 245.3009 13.29320791 28734
HULIANWANG DIGUI-99     
1 66415U 25258D   26160.75441109 -.00000095  00000+0  63472-4 0  9990
2 66415  50.0058 322.2237 0001024 118.1118 241.9858 13.29324024 28738
HULIANWANG DIGUI-100    
1 66416U 25258E   26160.70426515 -.00000092  00000+0  70067-4 0  9995
2 66416  50.0061 322.6345 0001000 121.9520 238.1450 13.29320754 28743
HULIANWANG DIGUI-101    
1 66417U 25258F   26160.69584344 -.00000095  00000+0  61668-4 0  9999
2 66417  50.0012 322.4963 0000895 113.4567 246.6399 13.29324711 28745
HULIANWANG DIGUI-102    
1 66418U 25258G   26160.74599115 -.00000094  00000+0  65556-4 0  9997
2 66418  50.0025 322.1172 0000978 111.2745 248.8232 13.29320721 28742
HULIANWANG DIGUI-103    
1 66419U 25258H   26160.73759418 -.00000086  00000+0  80997-4 0  9998
2 66419  50.0019 322.0606 0000970 122.1655 237.9311 13.29323795 28741
HULIANWANG DIGUI-104    
1 66420U 25258J   26160.72928266 -.00000089  00000+0  76170-4 0  9999
2 66420  50.0036 322.0522 0001019 112.3315 247.7665 13.29323964 28736
STARLINK-35617          
1 66422U 25259A   26160.58824618  .00014219  00000+0  52497-3 0  9996
2 66422  43.0034 115.5657 0003164 264.2151  95.8340 15.27594332 33546
STARLINK-35618          
1 66423U 25259B   26160.58311668  .00023821  00000+0  87098-3 0  9997
2 66423  42.9942 115.5266 0002921 265.0082  95.0436 15.27630363 33544
STARLINK-35588          
1 66424U 25259C   26160.91668981  .00014531  00000+0  53652-3 0  9995
2 66424  43.0008 113.6066 0001200 256.9060 153.8620 15.27580358  5760
STARLINK-35555          
1 66425U 25259D   26160.57668704  .00017313  00000+0  63686-3 0  9990
2 66425  42.9932 115.4726 0001693 266.7137  93.3520 15.27596629 33540
